COSMOS 2251 DEB         
1 37131U 93036BHD 17345.78958829  .00001897  00000-0  43946-3 0  9996
2 37131  74.0196 148.6065 0016707 211.9869 148.0281 14.55730729434010
